OBJECT_NAME,OBJECT_ID,EPOCH,MEAN_MOTION,ECCENTRICITY,INCLINATION,RA_OF_ASC_NODE,ARG_OF_PERICENTER,MEAN_ANOMALY,EPHEMERIS_TYPE,CLASSIFICATION_TYPE,NORAD_CAT_ID,ELEMENT_SET_NO,REV_AT_EPOCH,BSTAR,MEAN_MOTION_DOT,MEAN_MOTION_DDOT
SL-8 R/B,1985-006B,2026-07-21T23:07:11.914176,14.37848156,.00192273,74.0458,14.0649,256.2340,269.3596,0,U,15483,999,17332,.89503789E-4,.244E-5,0
SL-12 R/B(2),1985-042D,2026-07-22T04:47:55.334400,14.22012132,.00373766,71.1075,163.5424,275.9048,177.2427,0,U,15772,999,13351,.24421239E-4,.6E-7,0
SL-14 R/B,1985-069B,2026-07-22T04:07:21.210528,14.86538272,.00203195,82.5252,258.4646,105.7815,254.5644,0,U,15945,999,19281,.28728383E-4,.28E-5,0
SL-16 R/B,1985-097B,2026-07-22T03:36:21.740832,14.16616230,.00059343,71.0006,217.4695,37.3879,25.3957,0,U,16182,999,10627,.10305633E-3,.158E-5,0
SL-14 R/B,1986-006B,2026-07-21T18:35:46.309056,14.86971985,.00760351,82.5286,133.5669,186.8949,173.1230,0,U,16496,999,16913,.37795771E-4,.383E-5,0
COSMOS 1743,1986-034A,2026-07-21T12:46:16.790592,15.70122033,.00055644,82.5269,292.1297,157.1801,202.9709,0,U,16719,999,20117,.45211126E-3,.54843E-3,0
SL-14 R/B,1986-046B,2026-07-22T07:26:27.604608,14.85694397,.0024099,82.4840,312.9892,140.2607,220.0380,0,U,16792,999,14639,.37320659E-4,.35E-5,0
SL-14 R/B,1986-055B,2026-07-21T10:04:22.373760,14.85743081,.00174369,82.5209,0.9434,247.8860,142.1133,0,U,16882,999,13922,.30830138E-4,.292E-5,0
AJISAI (EGS),1986-061A,2026-07-22T07:05:46.999968,12.44516670,.00110766,50.0105,39.4375,270.0235,95.7862,0,U,16908,999,48476,-.56589685E-4,-.105E-5,0
SL-14 R/B,1987-024B,2026-07-21T14:54:35.689824,14.86235098,.00184158,82.5304,326.8850,172.3893,187.7607,0,U,17567,999,10802,.36659205E-4,.348E-5,0
COSMOS 1833,1987-027A,2026-07-22T00:10:34.538016,14.13067808,.00247469,70.9214,43.6818,357.8447,2.2563,0,U,17589,999,2929,.18897883E-4,-.13E-6,0
SL-16 R/B,1987-027B,2026-07-21T19:15:21.040704,14.17176156,.00072445,71.0041,353.8820,274.8596,85.1700,0,U,17590,999,3434,.87677913E-4,.129E-5,0
SL-14 R/B,1987-038B,2026-07-22T06:59:40.368480,14.85465025,.00208366,82.5021,170.0065,80.5031,279.8538,0,U,17912,999,9921,.37416749E-4,.348E-5,0
COSMOS 1844,1987-041A,2026-07-22T04:20:44.265696,14.14581286,.00308532,70.9000,110.4956,185.1930,174.8877,0,U,17973,999,2260,-.20901225E-4,-.89E-6,0
SL-14 R/B,1987-055B,2026-07-22T07:29:05.783136,14.85729927,.00190864,82.4968,222.1152,289.8591,70.0568,0,U,18153,999,8992,.2907895E-4,.277E-5,0
COSMOS 1867,1987-060A,2026-07-21T15:28:03.484992,14.31518937,.0017307,65.0114,291.5590,281.9622,77.9522,0,U,18187,999,3911,.10004913E-4,-.74E-6,0
SL-14 R/B,1988-001B,2026-07-22T02:44:38.307264,14.85629813,.00187412,82.5115,68.9112,149.5481,210.6828,0,U,18749,999,6198,.30984792E-4,.294E-5,0
COSMOS 1933,1988-020A,2026-07-22T03:40:05.704320,15.18921855,.00059735,82.5139,117.8069,89.9421,270.2498,0,U,18958,999,7063,.13160456E-3,.2779E-4,0
SL-3 R/B,1988-032B,2026-07-22T05:50:29.881824,15.21068480,.00270474,97.5281,186.2585,122.3489,238.0371,0,U,19046,999,7255,.18592536E-3,.4099E-4,0
SL-16 R/B,1988-039B,2026-07-22T06:45:15.564960,14.19632199,.0020263,71.0148,143.9518,137.8094,222.4595,0,U,19120,999,97748,.12005017E-4,-.23E-6,0
COSMOS 1953,1988-050A,2026-07-22T00:05:36.891744,15.30402014,.00108927,82.5071,22.9080,17.2771,342.8838,0,U,19210,999,5831,.24337395E-3,.7199E-4,0
SL-8 R/B,1988-053B,2026-07-22T07:30:50.831712,14.38980349,.00200005,74.0451,224.3074,7.7369,3.2994,0,U,19257,999,99596,.54580726E-4,.142E-5,0
COSMOS 1975,1988-093A,2026-07-21T19:51:45.357984,15.29726239,.00122286,82.5205,342.8451,61.6625,298.5847,0,U,19573,999,3990,.26591207E-3,.7705E-4,0
SL-14 R/B,1988-093B,2026-07-21T11:25:07.603680,14.85762506,.00195232,82.5309,276.4561,318.6573,51.7095,0,U,19574,999,2088,.25289755E-4,.244E-5,0
SL-16 R/B,1988-102B,2026-07-22T07:44:14.933184,14.16168370,.00138807,70.9972,228.2099,174.5361,185.5916,0,U,19650,999,94595,.14462503E-3,.239E-5,0
INTERCOSMOS 24,1989-080A,2026-07-21T11:36:49.892256,12.59693771,.11868847,82.6058,17.3197,342.3463,13.9474,0,U,20261,999,68364,.56507598E-4,.201E-5,0
SL-14 R/B,1989-080C,2026-07-22T02:57:21.779136,12.50579514,.12289745,82.5925,86.8597,237.4416,110.2163,0,U,20262,999,67695,.27997386E-4,.98E-6,0
DELTA 1 R/B,1989-089B,2026-07-22T02:51:40.102560,14.50750696,.00704558,97.0639,29.0877,58.5535,302.2526,0,U,20323,999,91522,.63572018E-4,.223E-5,0
ARIANE 40 R/B,1990-005H,2026-07-22T03:16:00.040512,14.39943031,.001073,98.2938,259.6618,154.2227,205.9499,0,U,20443,999,91215,.60472825E-4,.148E-5,0
DELTA 2 R/B(1),1990-008B,2026-07-21T19:22:38.620416,15.74799047,.00556396,35.6009,3.0435,79.0030,281.6964,0,U,20453,999,94715,.83196152E-3,.142874E-2,0
