SL-8 R/B                
1 15483U 85006B   26202.96333234  .00000244  00000+0  89504-4 0  9994
2 15483  74.0458  14.0649 0019227 256.2340 269.3596 14.37848156173321
SL-12 R/B(2)            
1 15772U 85042D   26203.19994600  .00000006  00000+0  24421-4 0  9994
2 15772  71.1075 163.5424 0037376 275.9048 177.2427 14.22012132133512
SL-14 R/B               
1 15945U 85069B   26203.17177327  .00000280  00000+0  28728-4 0  9990
2 15945  82.5252 258.4646 0020319 105.7815 254.5644 14.86538272192814
SL-16 R/B               
1 16182U 85097B   26203.15025163  .00000158  00000+0  10306-3 0  9999
2 16182  71.0006 217.4695 0005934  37.3879  25.3957 14.16616230106273
SL-14 R/B               
1 16496U 86006B   26202.77484154  .00000383  00000+0  37796-4 0  9997
2 16496  82.5286 133.5669 0076035 186.8949 173.1230 14.86971985169133
COSMOS 1743             
1 16719U 86034A   26202.53213878  .00054843  00000+0  45211-3 0  9993
2 16719  82.5269 292.1297 0005564 157.1801 202.9709 15.70122033201177
SL-14 R/B               
1 16792U 86046B   26203.31004172  .00000350  00000+0  37321-4 0  9997
2 16792  82.4840 312.9892 0024099 140.2607 220.0380 14.85694397146395
SL-14 R/B               
1 16882U 86055B   26202.41970340  .00000292  00000+0  30830-4 0  9999
2 16882  82.5209   0.9434 0017436 247.8860 142.1133 14.85743081139222
AJISAI (EGS)            
1 16908U 86061A   26203.29568287 -.00000105  00000+0 -56590-4 0  9991
2 16908  50.0105  39.4375 0011076 270.0235  95.7862 12.44516670484764
SL-14 R/B               
1 17567U 87024B   26202.62124641  .00000348  00000+0  36659-4 0  9992
2 17567  82.5304 326.8850 0018415 172.3893 187.7607 14.86235098108027
COSMOS 1833             
1 17589U 87027A   26203.00734419 -.00000013  00000+0  18898-4 0  9997
2 17589  70.9214  43.6818 0024746 357.8447   2.2563 14.13067808 29294
SL-16 R/B               
1 17590U 87027B   26202.80232686  .00000129  00000+0  87678-4 0  9994
2 17590  71.0041 353.8820 0007244 274.8596  85.1700 14.17176156 34348
SL-14 R/B               
1 17912U 87038B   26203.29143945  .00000348  00000+0  37417-4 0  9996
2 17912  82.5021 170.0065 0020836  80.5031 279.8538 14.85465025 99218
COSMOS 1844             
1 17973U 87041A   26203.18106789 -.00000089  00000+0 -20901-4 0  9994
2 17973  70.9000 110.4956 0030853 185.1930 174.8877 14.14581286 22609
SL-14 R/B               
1 18153U 87055B   26203.31187249  .00000277  00000+0  29079-4 0  9997
2 18153  82.4968 222.1152 0019086 289.8591  70.0568 14.85729927 89926
COSMOS 1867             
1 18187U 87060A   26202.64448478 -.00000074  00000+0  10005-4 0  9994
2 18187  65.0114 291.5590 0017307 281.9622  77.9522 14.31518937 39111
SL-14 R/B               
1 18749U 88001B   26203.11433226  .00000294  00000+0  30985-4 0  9994
2 18749  82.5115  68.9112 0018741 149.5481 210.6828 14.85629813 61981
COSMOS 1933             
1 18958U 88020A   26203.15284380  .00002779  00000+0  13160-3 0  9991
2 18958  82.5139 117.8069 0005973  89.9421 270.2498 15.18921855 70633
SL-3 R/B                
1 19046U 88032B   26203.24340141  .00004099  00000+0  18593-3 0  9993
2 19046  97.5281 186.2585 0027047 122.3489 238.0371 15.21068480 72556
SL-16 R/B               
1 19120U 88039B   26203.28143015 -.00000023  00000+0  12005-4 0  9995
2 19120  71.0148 143.9518 0020263 137.8094 222.4595 14.19632199977481
COSMOS 1953             
1 19210U 88050A   26203.00389921  .00007199  00000+0  24337-3 0  9996
2 19210  82.5071  22.9080 0010892  17.2771 342.8838 15.30402014 58317
SL-8 R/B                
1 19257U 88053B   26203.31308833  .00000142  00000+0  54581-4 0  9993
2 19257  74.0451 224.3074 0020000   7.7369   3.2994 14.38980349995967
COSMOS 1975             
1 19573U 88093A   26202.82760831  .00007705  00000+0  26591-3 0  9994
2 19573  82.5205 342.8451 0012228  61.6625 298.5847 15.29726239 39907
SL-14 R/B               
1 19574U 88093B   26202.47578245  .00000244  00000+0  25290-4 0  9999
2 19574  82.5309 276.4561 0019523 318.6573  51.7095 14.85762506 20888
SL-16 R/B               
1 19650U 88102B   26203.32239506  .00000239  00000+0  14463-3 0  9997
2 19650  70.9972 228.2099 0013880 174.5361 185.5916 14.16168370945950
INTERCOSMOS 24          
1 20261U 89080A   26202.48391079  .00000201  00000+0  56508-4 0  9999
2 20261  82.6058  17.3197 1186884 342.3463  13.9474 12.59693771683646
SL-14 R/B               
1 20262U 89080C   26203.12316874  .00000098  00000+0  27997-4 0  9996
2 20262  82.5925  86.8597 1228974 237.4416 110.2163 12.50579514676954
DELTA 1 R/B             
1 20323U 89089B   26203.11921415  .00000223  00000+0  63572-4 0  9994
2 20323  97.0639  29.0877 0070455  58.5535 302.2526 14.50750696915223
ARIANE 40 R/B           
1 20443U 90005H   26203.13611158  .00000148  00000+0  60473-4 0  9992
2 20443  98.2938 259.6618 0010730 154.2227 205.9499 14.39943031912158
DELTA 2 R/B(1)          
1 20453U 90008B   26202.80739144  .00142874  00000+0  83196-3 0  9994
2 20453  35.6009   3.0435 0055639  79.0030 281.6964 15.74799047947156
